STARLINK-1024
1 14729C 19074S   21326.15208182  .00006320  00000-0  40331-3 0  3267
2 14729  53.0025  44.6104 0001455  72.6522 145.8485 15.08188684    16
